JILIN-1 GAOFEN 03D54    
1 54254U 22155D   25099.22840359  .00045683  00000+0  12747-2 0  9991
2 54254  97.5767 219.9432 0008548 132.7173 227.4791 15.36566491132837
EOS-6 (OCEANSAT-3)      
1 54361U 22158A   25099.25212418  .00000927  00000+0  26718-3 0  9991
2 54361  98.3480 198.2894 0001330 143.6173 216.5110 14.46962464125084
ASTROCAST-0304          
1 54367U 22158G   25099.21547226  .00080030  00000+0  10469-2 0  9999
2 54367  97.4336 214.5785 0004499  91.0483 269.1288 15.58348577132412
ASTROCAST-0302          
1 54369U 22158J   25099.23445647  .00078255  00000+0  11430-2 0  9992
2 54369  97.4413 214.8913 0004539  96.8364 263.3406 15.55375138132421
ASTROCAST-0301          
1 54370U 22158K   25099.27815706  .00059118  00000+0  86473-3 0  9992
2 54370  97.4468 215.2296 0004719 117.9236 242.2496 15.55411407132431
DONGPO 09               
1 54685U 22167D   25099.27528012  .00020743  00000+0  84572-3 0  9992
2 54685  97.6477 251.1167 0004110 193.4577 166.6551 15.24471404129098
DONGPO 08               
1 54686U 22167E   25099.24178383  .00019201  00000+0  82088-3 0  9999
2 54686  97.6417 249.9820 0010412 249.4364 110.5755 15.22844025129053
2022-167F               
1 54687U 22167F   25099.20711791  .00040933  00000+0  10392-2 0  9996
2 54687  97.6104 252.5500 0005952 179.9486 180.1761 15.39531292129302
DONGPO 10               
1 54689U 22167H   25099.25055972  .00019666  00000+0  82799-3 0  9995
2 54689  97.6506 250.9702 0006263 194.6746 165.4309 15.23387646129067
JILIN-1 GAOFEN 03D48    
1 54695U 22167P   25099.20503746  .00020442  00000+0  85303-3 0  9992
2 54695  97.6440 250.3301 0008398 200.9788 159.1105 15.23666867129067
STAR VIBE               
1 55009U 23001A   25099.21902185  .00019911  00000+0  68747-3 0  9993
2 55009  97.3770 159.5033 0006697 220.1246 139.9500 15.29965965125614
BRO-8                   
1 55011U 23001C   25099.21421379  .00028676  00000+0  10706-2 0  9996
2 55011  97.3838 159.2872 0008422 230.3328 129.7169 15.27313823125551
CONNECTA T1.2           
1 55012U 23001D   25098.11696929  .00018281  00000+0  57680-3 0  9994
2 55012  97.3854 161.3291 0008353 216.0292 144.0388 15.32880743125585
BIRKELAND               
1 55015U 23001G   25099.23868390  .00014543  00000+0  48822-3 0  9999
2 55015  97.3881 162.5616 0007592 206.5760 153.5093 15.30941439125766
ION SCV-008             
1 55051U 23001AU  25098.82355971  .00011826  00000+0  52316-3 0  9993
2 55051  97.5842 184.8676 0018801  98.0519 262.2851 15.21677810125139
ION SCV-007             
1 55060U 23001BD  25098.88735285  .00001179  00000+0  17466-3 0  9996
2 55060  97.9554 164.1739 0011194 301.1286  58.8826 14.76931620122130
FLOCK 4Y-23             
1 55080U 23001BZ  25098.73190303  .00091169  00000+0  11821-2 0  9994
2 55080  97.3796 170.6262 0008366 182.6571 177.4642 15.58515600126295
HUYGENS                 
1 55093U 23001CN  25099.10814338  .00013997  00000+0  46919-3 0  9991
2 55093  97.3810 162.1465 0011734 189.9504 170.1506 15.30959710125760
SHARJAHSAT-1            
1 55104U 23001CZ  25099.15310250  .00019765  00000+0  62313-3 0  9998
2 55104  97.3779 160.8410 0007679 218.1725 141.8974 15.32894225125681
2023-003A               
1 55133U 23003A   25099.24504550  .00064038  00000+0  12028-2 0  9990
2 55133  97.1773 172.4491 0003063 254.0881 106.0032 15.48381116125100
HORUS 1                 
1 55690U 23025A   25099.17556586  .00015539  00000+0  65198-3 0  9999
2 55690  97.3870 176.6357 0003594 156.9004 203.2395 15.23561535117977
HORUS 2                 
1 55844U 23032A   25099.20956560  .00015758  00000+0  66069-3 0  9999
2 55844  97.3932 177.1006 0006633 147.4684 212.6963 15.23569346115410
GLOBAL-19               
1 55982U 23041B   25094.41558960  .00034529  00000+0  88961-3 0  9994
2 55982  42.0083 241.8383 0007015 300.1846  59.8298 15.38529587114349
BRO-9                   
1 56185U 23054H   25099.20387346  .00029516  00000+0  62097-3 0  9996
2 56185  97.3308   0.1229 0005666 161.4064 198.7393 15.45241291111452
ION SCV-010             
1 56192U 23054Q   25098.43803297  .00009806  00000+0  43815-3 0  9993
2 56192  97.4327 348.6857 0014564 286.8154  73.1484 15.21449125110005
GHOST-1                 
1 56195U 23054T   25098.61947709  .00034720  00000+0  67486-3 0  9996
2 56195  97.3318   0.6348 0006831 158.7343 201.4192 15.47513118111423
GHOST-2                 
1 56197U 23054V   25098.31264417  .00058003  00000+0  85293-3 0  9999
2 56197  97.3318   2.6516 0007491 148.6442 211.5260 15.55251408111535
TOMORROW-R1             
1 56199U 23054X   25099.21823575  .00922075  43645-3  14994-2 0  9991
2 56199  97.3169  10.1873 0006085 135.5328 224.6441 16.03431315112096
FACSAT-2                
1 56205U 23054AD  25099.19181137  .00073690  00000+0  88830-3 0  9992
2 56205  97.3361   6.6477 0008495 137.4247 222.7670 15.60506466111843
CONNECTA T2.1           
1 56210U 23054AJ  25099.18102623  .00074320  00000+0  93121-3 0  9990
2 56210  97.3285   5.0006 0007875 138.6887 221.4967 15.59491130111786
TELEOS-2                
1 56310U 23057C   25098.65642804  .00013045  00000+0  10602-2 0  9994
2 56310   9.9878 128.0914 0000840 268.2267  91.7851 14.96373179107603
SNIPE 4                 
1 56744U 23072B   25099.13399824  .00026323  00000+0  10350-2 0  9990
2 56744  97.5481 291.5534 0010077  89.2781 270.9611 15.25597411103607
SNIPE 2                 
1 56745U 23072C   25099.18493246  .00027194  00000+0  10334-2 0  9998
2 56745  97.5589 292.7689 0008285 105.5244 254.6909 15.26741344103634
2023-072G               
1 56749U 23072G   25099.17164378  .00028482  00000+0  10027-2 0  9992
2 56749  97.5233 291.6006 0007165 103.5861 256.6177 15.29256853103722
OTTER PUP               
1 56933U 23084B   25098.91831656  .00044092  00000+0  10128-2 0  9998
2 56933  97.5576 229.5266 0004110  28.1849 331.9620 15.42555301101431
GEISAT PRECURSOR        
1 56934U 23084C   25099.15541983  .00014360  00000+0  54550-3 0  9990
2 56934  97.5666 225.0702 0008050  84.6120 275.6036 15.26893703101139
EIVE                    
1 56937U 23084F   25099.16220959  .05811124  25445-5  17656-2 0  9990
2 56937  97.5252 236.8909 0011625 281.0115  78.9870 16.26716933101939
LAYAN-23                
1 56939U 23084H   25099.20693984  .00076247  00000+0  82906-3 0  9998
2 56939  97.5457 236.1543 0001518  88.9048 271.2384 15.63216134101895
AFRL-XVI                
1 56942U 23084L   25098.87971900  .00063144  00000+0  10117-2 0  9997
2 56942  97.5582 233.7979 0002824  57.4043 302.7482 15.52888636101687
BLACKJACK ACES-3        
1 56950U 23084U   25098.33875364  .00015307  00000+0  69418-3 0  9991
2 56950  97.5649 225.3510 0008061  63.8104 296.3959 15.20894908101081
BLACKJACK ACES-4        
1 56952U 23084W   25098.60628420  .00064775  00000+0  12596-2 0  9999
2 56952  97.5631 230.1582 0004912  51.3017 308.8671 15.47367566101425
BLACKJACK ACES-2        
1 56955U 23084Z   25098.90793882  .00021683  00000+0  97519-3 0  9990
2 56955  97.5652 226.0695 0008484  66.4824 293.7302 15.21100082101187
BLACKJACK ACES-1        
1 56956U 23084AA  25098.88162078  .00020961  00000+0  94154-3 0  9995
2 56956  97.5625 225.8206 0008323  68.8326 291.3798 15.21152320 50894
ION SCV-011             
1 56957U 23084AB  25098.87286475  .00012509  00000+0  53879-3 0  9991
2 56957  98.0998 243.7699 0009252 103.0277 257.1991 15.22715092 99584
GHOST-3                 
1 56958U 23084AC  25098.63055251  .00022977  00000+0  74228-3 0  9993
2 56958  97.5664 226.2275 0009206  59.6802 300.5349 15.32072248101162
TOMORROW-R2             
1 56962U 23084AG  25098.91573564  .00039400  00000+0  98203-3 0  9999
2 56962  97.5617 228.9338 0007821  49.8282 310.3647 15.40088874101372
AFR-1                   
1 56964U 23084AJ  25099.24132116  .00010248  00000+0  43514-3 0  9996
2 56964  97.5701 223.9042 0012831  67.2613 292.9978 15.23199304101053
DROID.001               
1 56965U 23084AK  25098.90884535  .00051374  00000+0  11515-2 0  9998
2 56965  97.5602 229.5725 0006094  39.8332 320.3361 15.43241848101427
METEOR-M2 3             
1 57166U 23091A   25099.22116963  .00000067  00000+0  48299-4 0  9993
2 57166  98.6677 156.5895 0003872   8.9329 351.1918 14.23990757 92758
STRATOSAT-TK 1 (RS52S)  
1 57167U 23091B   25099.21682610  .00061629  00000+0  18151-2 0  9993
2 57167  97.5607 160.9237 0011308 165.7174 194.4391 15.34764346 98588
UMKA 1 (RS40S)          
1 57172U 23091G   25099.17977931  .00012423  00000+0  67796-3 0  9995
2 57172  97.5653 154.8978 0015066 180.9833 179.1371 15.14392584 98188
2023-091H               
1 57173U 23091H   25099.24800080  .00018903  00000+0  93276-3 0  9995
2 57173  97.5646 155.8690 0012882 186.1161 173.9918 15.17877513 98258
2023-091J               
1 57174U 23091J   25099.23149386  .00006750  00000+0  41939-3 0  9996
2 57174  97.5664 153.0581 0014238 195.8834 164.1950 15.09905696 98061
CUBEBEL 2 (EU11S)       
1 57175U 23091K   25099.22654900  .00018707  00000+0  92662-3 0  9993
2 57175  97.5656 155.7450 0012931 188.7042 171.3969 15.17745858 98248
SITRO-AIS 5 (KATYS)     
1 57176U 23091L   25099.23079022  .00019827  00000+0  96684-3 0  9993
2 57176  97.5658 156.1225 0015207 177.8447 182.2855 15.18250300 98264
ZORKIY-2M 1             
1 57177U 23091M   25099.23564522  .00013054  00000+0  71746-3 0  9996
2 57177  97.5689 155.1442 0015967 177.9494 182.1805 15.14116148 98198
CUBESX-HSE 3 (RS42S)    
1 57178U 23091N   25099.23565504  .00021414  00000+0  10172-2 0  9992
2 57178  97.5684 156.8089 0014889 171.1827 188.9671 15.19149852 98296
MONITOR-3 (RS58S)       
1 57180U 23091Q   25099.19928440  .00017349  00000+0  86056-3 0  9999
2 57180  97.5679 156.1910 0015370 172.8013 187.3444 15.17682140 98257
MONITOR-4 (RS57S)       
1 57182U 23091S   25099.19751940  .00017421  00000+0  86311-3 0  9995
2 57182  97.5673 156.1474 0015388 173.4631 186.6806 15.17722620 98252
